OBJECT_NAME,OBJECT_ID,EPOCH,MEAN_MOTION,ECCENTRICITY,INCLINATION,RA_OF_ASC_NODE,ARG_OF_PERICENTER,MEAN_ANOMALY,EPHEMERIS_TYPE,CLASSIFICATION_TYPE,NORAD_CAT_ID,ELEMENT_SET_NO,REV_AT_EPOCH,BSTAR,MEAN_MOTION_DOT,MEAN_MOTION_DDOT
ONEWEB-0211,2021-045A,2026-06-15T17:55:02.983584,13.16196445,.00018689,87.9007,259.3690,121.2243,238.9071,0,U,48767,999,24425,-.30248079E-3,-.102E-5,0
ONEWEB-0223,2021-045B,2026-06-15T17:57:23.346432,13.15548613,.00016931,87.9009,259.4768,110.0774,250.0538,0,U,48768,999,24421,-.13097723E-3,-.36E-6,0
ONEWEB-0230,2021-045C,2026-06-15T19:05:49.946208,13.15548078,.00020129,87.9002,259.4809,95.7563,264.3797,0,U,48769,999,24448,.8690201E-5,.16E-6,0
ONEWEB-0237,2021-045D,2026-06-15T17:00:19.166688,13.15547304,.00017128,87.9001,259.5000,102.4577,257.6745,0,U,48770,999,24419,.39170732E-3,.16E-5,0
ONEWEB-0235,2021-045E,2026-06-15T18:13:21.177696,13.15548179,.00016235,87.9010,259.4755,108.2324,251.8983,0,U,48771,999,24419,-.20167673E-3,-.63E-6,0
ONEWEB-0242,2021-045F,2026-06-15T18:04:12.165312,13.15546912,.00017867,87.9013,259.4736,98.8655,261.2678,0,U,48772,999,24423,-.25828505E-3,-.84E-6,0
ONEWEB-0241,2021-045G,2026-06-15T23:14:32.555904,13.15549111,.0001821,87.9000,259.4490,113.2014,246.9308,0,U,48773,999,24417,-.27489063E-3,-.91E-6,0
ONEWEB-0243,2021-045H,2026-06-15T16:42:04.748256,13.15548490,.00014697,87.9002,259.5157,93.9445,266.1854,0,U,48774,999,24416,.17471835E-3,.79E-6,0
ONEWEB-0222,2021-045J,2026-06-15T16:18:07.084224,13.15548604,.00018217,87.9009,259.4865,106.6613,253.4718,0,U,48775,999,24420,-.39273398E-3,-.135E-5,0
ONEWEB-0244,2021-045K,2026-06-15T18:45:17.744832,13.15548590,.00018175,87.9015,259.4606,101.5482,258.5852,0,U,48776,999,24478,.27833509E-3,.118E-5,0
ONEWEB-0247,2021-045L,2026-06-15T18:40:43.354848,13.15547307,.00011399,87.9000,259.4938,104.2810,255.8447,0,U,48777,999,24422,.65383843E-4,.37E-6,0
ONEWEB-0245,2021-045M,2026-06-15T18:33:52.572096,13.15547690,.00019234,87.9009,259.4737,106.6442,253.4899,0,U,48778,999,24419,.15221846E-3,.7E-6,0
ONEWEB-0229,2021-045N,2026-06-15T18:27:02.306880,13.15548232,.00018481,87.9009,259.4726,98.8059,261.3280,0,U,48779,999,24422,-.69721544E-4,-.13E-6,0
ONEWEB-0228,2021-045P,2026-06-15T19:15:08.096256,13.15546691,.0001882,87.9017,259.4585,101.9046,258.2295,0,U,48780,999,24414,.30450935E-4,.24E-6,0
ONEWEB-0232,2021-045Q,2026-06-15T16:48:54.330912,13.15550186,.00019757,87.9013,259.4797,102.9941,257.1410,0,U,48781,999,24445,.31881052E-3,.133E-5,0
ONEWEB-0231,2021-045R,2026-06-15T16:16:58.416096,13.15547789,.00018037,87.9005,259.4972,105.9993,254.1336,0,U,48782,999,24414,-.26032967E-3,-.85E-6,0
ONEWEB-0234,2021-045S,2026-06-15T19:01:03.919872,13.15549218,.00026878,87.9011,259.4563,110.7642,249.3776,0,U,48783,999,24429,.32746834E-3,.136E-5,0
ONEWEB-0238,2021-045T,2026-06-15T19:01:26.947200,13.15547321,.00023084,87.9016,259.4507,107.1012,253.0371,0,U,48784,999,24419,.27342242E-3,.116E-5,0
ONEWEB-0240,2021-045U,2026-06-15T19:32:03.526080,13.15547422,.00018523,87.9016,259.4566,110.3291,249.8039,0,U,48785,999,24422,-.24934312E-3,-.81E-6,0
ONEWEB-0246,2021-045V,2026-06-15T23:03:07.685568,13.15549380,.00018594,87.9012,259.4318,98.8612,261.2729,0,U,48786,999,24411,.38925953E-4,.27E-6,0
ONEWEB-0210,2021-045W,2026-06-15T18:47:32.905536,13.15550783,.00011295,87.9011,259.4642,89.0287,271.0972,0,U,48787,999,24413,.38519678E-3,.158E-5,0
ONEWEB-0214,2021-045X,2026-06-15T19:00:07.156800,13.15548543,.00018059,87.9015,259.4590,89.6555,270.4783,0,U,48788,999,24410,.38227886E-3,.157E-5,0
ONEWEB-0221,2021-045Y,2026-06-15T19:10:23.579328,13.15548226,.00017832,87.9012,259.4666,104.1625,255.9704,0,U,48789,999,24419,.25630392E-3,.109E-5,0
ONEWEB-0213,2021-045Z,2026-06-15T18:54:24.306912,13.15546851,.00016723,87.9010,259.4720,102.6132,257.5186,0,U,48790,999,24425,.26378812E-3,.112E-5,0
ONEWEB-0212,2021-045AA,2026-06-15T18:21:19.587456,13.15550418,.00020055,87.9010,259.4709,101.6905,258.4450,0,U,48791,999,24424,.11119108E-3,.55E-6,0
ONEWEB-0227,2021-045AB,2026-06-15T16:30:40.433472,13.15548833,.00019325,87.9007,259.4870,103.2905,256.8441,0,U,48792,999,24418,-.36157034E-4,-.1E-7,0
ONEWEB-0226,2021-045AC,2026-06-15T16:21:31.506624,13.15550158,.00017009,87.9007,259.4930,99.5331,260.5991,0,U,48793,999,24415,-.28242998E-3,-.94E-6,0
ONEWEB-0224,2021-045AD,2026-06-15T19:08:05.673696,13.15546616,.00023192,87.9003,259.5040,122.6894,237.4461,0,U,48794,999,24409,.28299553E-3,.119E-5,0
ONEWEB-0233,2021-045AE,2026-06-15T19:14:45.342816,13.15548358,.00017736,87.9002,259.5106,107.9964,252.1359,0,U,48795,999,24411,-.82829169E-4,-.18E-6,0
ONEWEB-0190,2021-045AF,2026-06-15T18:56:41.052192,13.15547076,.00013214,87.9004,259.4750,110.7776,249.3496,0,U,48796,999,24418,.22324653E-3,.97E-6,0
