ONEWEB-0211             
1 48767U 21045A   26166.74656231 -.00000102  00000+0 -30248-3 0  9993
2 48767  87.9007 259.3690 0001868 121.2243 238.9071 13.16196445244254
ONEWEB-0223             
1 48768U 21045B   26166.74818688 -.00000036  00000+0 -13098-3 0  9990
2 48768  87.9009 259.4768 0001693 110.0774 250.0538 13.15548613244211
ONEWEB-0230             
1 48769U 21045C   26166.79571697  .00000016  00000+0  86902-5 0  9994
2 48769  87.9002 259.4809 0002012  95.7563 264.3797 13.15548078244481
ONEWEB-0237             
1 48770U 21045D   26166.70855517  .00000160  00000+0  39171-3 0  9997
2 48770  87.9001 259.5000 0001712 102.4577 257.6745 13.15547304244190
ONEWEB-0235             
1 48771U 21045E   26166.75927289 -.00000063  00000+0 -20168-3 0  9999
2 48771  87.9010 259.4755 0001623 108.2324 251.8983 13.15548179244193
ONEWEB-0242             
1 48772U 21045F   26166.75291858 -.00000084  00000+0 -25829-3 0  9998
2 48772  87.9013 259.4736 0001786  98.8655 261.2678 13.15546912244231
ONEWEB-0241             
1 48773U 21045G   26166.96843236 -.00000091  00000+0 -27489-3 0  9997
2 48773  87.9000 259.4490 0001821 113.2014 246.9308 13.15549111244173
ONEWEB-0243             
1 48774U 21045H   26166.69588829  .00000079  00000+0  17472-3 0  9997
2 48774  87.9002 259.5157 0001469  93.9445 266.1854 13.15548490244165
ONEWEB-0222             
1 48775U 21045J   26166.67924866 -.00000135  00000+0 -39273-3 0  9999
2 48775  87.9009 259.4865 0001821 106.6613 253.4718 13.15548604244209
ONEWEB-0244             
1 48776U 21045K   26166.78145538  .00000118  00000+0  27834-3 0  9992
2 48776  87.9015 259.4606 0001817 101.5482 258.5852 13.15548590244785
ONEWEB-0247             
1 48777U 21045L   26166.77827957  .00000037  00000+0  65384-4 0  9997
2 48777  87.9000 259.4938 0001139 104.2810 255.8447 13.15547307244224
ONEWEB-0245             
1 48778U 21045M   26166.77352514  .00000070  00000+0  15222-3 0  9992
2 48778  87.9009 259.4737 0001923 106.6442 253.4899 13.15547690244195
ONEWEB-0229             
1 48779U 21045N   26166.76877670 -.00000013  00000+0 -69722-4 0  9991
2 48779  87.9009 259.4726 0001848  98.8059 261.3280 13.15548232244225
ONEWEB-0228             
1 48780U 21045P   26166.80217704  .00000024  00000+0  30451-4 0  9991
2 48780  87.9017 259.4585 0001882 101.9046 258.2295 13.15546691244148
ONEWEB-0232             
1 48781U 21045Q   26166.70062883  .00000133  00000+0  31881-3 0  9995
2 48781  87.9013 259.4797 0001975 102.9941 257.1410 13.15550186244453
ONEWEB-0231             
1 48782U 21045R   26166.67845389 -.00000085  00000+0 -26033-3 0  9993
2 48782  87.9005 259.4972 0001803 105.9993 254.1336 13.15547789244145
ONEWEB-0234             
1 48783U 21045S   26166.79240648  .00000136  00000+0  32747-3 0  9998
2 48783  87.9011 259.4563 0002687 110.7642 249.3776 13.15549218244294
ONEWEB-0238             
1 48784U 21045T   26166.79267300  .00000116  00000+0  27342-3 0  9996
2 48784  87.9016 259.4507 0002308 107.1012 253.0371 13.15547321244194
ONEWEB-0240             
1 48785U 21045U   26166.81392970 -.00000081  00000+0 -24934-3 0  9999
2 48785  87.9016 259.4566 0001852 110.3291 249.8039 13.15547422244228
ONEWEB-0246             
1 48786U 21045V   26166.96050562  .00000027  00000+0  38926-4 0  9999
2 48786  87.9012 259.4318 0001859  98.8612 261.2729 13.15549380244111
ONEWEB-0210             
1 48787U 21045W   26166.78301974  .00000158  00000+0  38520-3 0  9990
2 48787  87.9011 259.4642 0001129  89.0287 271.0972 13.15550783244131
ONEWEB-0214             
1 48788U 21045X   26166.79174950  .00000157  00000+0  38228-3 0  9998
2 48788  87.9015 259.4590 0001805  89.6555 270.4783 13.15548543244104
ONEWEB-0221             
1 48789U 21045Y   26166.79888402  .00000109  00000+0  25630-3 0  9993
2 48789  87.9012 259.4666 0001783 104.1625 255.9704 13.15548226244190
ONEWEB-0213             
1 48790U 21045Z   26166.78778133  .00000112  00000+0  26379-3 0  9998
2 48790  87.9010 259.4720 0001672 102.6132 257.5186 13.15546851244255
ONEWEB-0212             
1 48791U 21045AA  26166.76481004  .00000055  00000+0  11119-3 0  9997
2 48791  87.9010 259.4709 0002005 101.6905 258.4450 13.15550418244248
ONEWEB-0227             
1 48792U 21045AB  26166.68796798 -.00000001  00000+0 -36157-4 0  9991
2 48792  87.9007 259.4870 0001932 103.2905 256.8441 13.15548833244183
ONEWEB-0226             
1 48793U 21045AC  26166.68161466 -.00000094  00000+0 -28243-3 0  9998
2 48793  87.9007 259.4930 0001700  99.5331 260.5991 13.15550158244156
ONEWEB-0224             
1 48794U 21045AD  26166.79728789  .00000119  00000+0  28300-3 0  9998
2 48794  87.9003 259.5040 0002319 122.6894 237.4461 13.15546616244097
ONEWEB-0233             
1 48795U 21045AE  26166.80191369 -.00000018  00000+0 -82829-4 0  9996
2 48795  87.9002 259.5106 0001773 107.9964 252.1359 13.15548358244115
ONEWEB-0190             
1 48796U 21045AF  26166.78936403  .00000097  00000+0  22325-3 0  9999
2 48796  87.9004 259.4750 0001321 110.7776 249.3496 13.15547076244187
